ONEWEB-0199             
1 48234U 21031AA  24240.76648365 -.00000159  00000+0 -46382-3 0  9997
2 48234  87.8921  60.6437 0001550  88.1637 271.9671 13.14504527161764
ONEWEB-0203             
1 48235U 21031AB  24240.75697169 -.00000131  00000+0 -38686-3 0  9991
2 48235  87.8924  60.6476 0001290  99.1809 260.9466 13.14503346161774
ONEWEB-0197             
1 48236U 21031AC  24240.73239659  .00000269  00000+0  69192-3 0  9992
2 48236  87.8925  60.6619 0001861  79.1381 280.9958 13.14504181161688
ONEWEB-0194             
1 48237U 21031AD  24240.93933794  .00000028  00000+0  40933-4 0  9992
2 48237  87.8925  60.6139 0001444  90.0826 270.0469 13.14504346161881
ONEWEB-0193             
1 48238U 21031AE  24240.80296081  .00000300  00000+0  77404-3 0  9995
2 48238  87.8926  60.6494 0001671  93.9695 266.1626 13.14504695161816
ONEWEB-0191             
1 48239U 21031AF  24240.73795144  .00000186  00000+0  46734-3 0  9996
2 48239  87.8924  60.6439 0001681  93.1447 266.9875 13.14502057161669
ONEWEB-0195             
1 48240U 21031AG  24240.94330622  .00000211  00000+0  53380-3 0  9991
2 48240  87.8922  60.6016 0001972 100.4969 259.6383 13.14504005161673
ONEWEB-0201             
1 48241U 21031AH  24240.77997165  .00000055  00000+0  11318-3 0  9995
2 48241  87.8927  60.6712 0001807  92.2312 267.9025 13.14503425161882
